{
  "type": "FeatureCollection",
  "features": [
    {
      "type": "Feature",
      "properties": {
        "norad_id": 40118,
        "name": "GAOFEN-2",
        "group": "resource",
        "lat": 24.8669251335854,
        "lon": 55.630379949150814,
        "alt_km": 622.7789566914007,
        "timestamp": "2025-12-26T04:40:05.445277+00:00",
        "meta_object_name": "GAOFEN-2",
        "meta_object_id": "2014-049A",
        "meta_epoch": "2025-12-25T23:41:21.724800",
        "meta_mean_motion": 14.80629096,
        "meta_eccentricity": 0.00087032,
        "meta_inclination": 98.0362,
        "meta_ra_of_asc_node": 59.1771,
        "meta_arg_of_pericenter": 76.4709,
        "meta_mean_anomaly": 283.7472,
        "meta_ephemeris_type": 0,
        "meta_classification_type": "U",
        "meta_norad_cat_id": 40118,
        "meta_element_set_no": 999,
        "meta_rev_at_epoch": 61360,
        "meta_bstar": 7.9942849e-05,
        "meta_mean_motion_dot": 5.6e-06,
        "meta_mean_motion_ddot": 0,
        "tle_line1": "1 40118U 14049A   25359.98705700  .00000560  00000+0  79943-4 0  9998",
        "tle_line2": "2 40118  98.0362  59.1771 0008703  76.4709 283.7472 14.80629096613609"
      },
      "geometry": {
        "type": "Point",
        "coordinates": [
          55.630379949150814,
          24.8669251335854
        ]
      }
    },
    {
      "type": "Feature",
      "properties": {
        "norad_id": 40143,
        "name": "YAOGAN-21",
        "group": "resource",
        "lat": -82.06077429319097,
        "lon": 107.49162875473851,
        "alt_km": 501.09522466927683,
        "timestamp": "2025-12-26T04:40:05.445287+00:00",
        "meta_object_name": "YAOGAN-21",
        "meta_object_id": "2014-053A",
        "meta_epoch": "2025-12-25T22:44:35.816928",
        "meta_mean_motion": 15.23803321,
        "meta_eccentricity": 0.00084378,
        "meta_inclination": 97.1735,
        "meta_ra_of_asc_node": 42.6851,
        "meta_arg_of_pericenter": 357.8228,
        "meta_mean_anomaly": 2.2971,
        "meta_ephemeris_type": 0,
        "meta_classification_type": "U",
        "meta_norad_cat_id": 40143,
        "meta_element_set_no": 999,
        "meta_rev_at_epoch": 62855,
        "meta_bstar": 0.00016291592,
        "meta_mean_motion_dot": 3.858e-05,
        "meta_mean_motion_ddot": 0,
        "tle_line1": "1 40143U 14053A   25359.94763677  .00003858  00000+0  16292-3 0  9994",
        "tle_line2": "2 40143  97.1735  42.6851 0008437 357.8228   2.2971 15.23803321628554"
      },
      "geometry": {
        "type": "Point",
        "coordinates": [
          107.49162875473851,
          -82.06077429319097
        ]
      }
    },
    {
      "type": "Feature",
      "properties": {
        "norad_id": 40275,
        "name": "YAOGAN-22",
        "group": "resource",
        "lat": 58.15397137467649,
        "lon": -18.39975426753315,
        "alt_km": 1196.6009041686102,
        "timestamp": "2025-12-26T04:40:05.445298+00:00",
        "meta_object_name": "YAOGAN-22",
        "meta_object_id": "2014-063A",
        "meta_epoch": "2025-12-25T22:35:00.656448",
        "meta_mean_motion": 13.15523293,
        "meta_eccentricity": 0.00061005,
        "meta_inclination": 100.743,
        "meta_ra_of_asc_node": 143.5472,
        "meta_arg_of_pericenter": 216.6674,
        "meta_mean_anomaly": 143.4021,
        "meta_ephemeris_type": 0,
        "meta_classification_type": "U",
        "meta_norad_cat_id": 40275,
        "meta_element_set_no": 999,
        "meta_rev_at_epoch": 53703,
        "meta_bstar": 5.1501256e-05,
        "meta_mean_motion_dot": -2.7e-07,
        "meta_mean_motion_ddot": 0,
        "tle_line1": "1 40275U 14063A   25359.94097982 -.00000027  00000+0  51501-4 0  9999",
        "tle_line2": "2 40275 100.7430 143.5472 0006100 216.6674 143.4021 13.15523293537037"
      },
      "geometry": {
        "type": "Point",
        "coordinates": [
          -18.39975426753315,
          58.15397137467649
        ]
      }
    },
    {
      "type": "Feature",
      "properties": {
        "norad_id": 40298,
        "name": "ASNARO",
        "group": "resource",
        "lat": 56.510627577045604,
        "lon": -92.91722548599708,
        "alt_km": 498.0704777586552,
        "timestamp": "2025-12-26T04:40:05.445308+00:00",
        "meta_object_name": "ASNARO",
        "meta_object_id": "2014-070A",
        "meta_epoch": "2025-12-25T21:48:35.097984",
        "meta_mean_motion": 15.19755365,
        "meta_eccentricity": 0.00057056,
        "meta_inclination": 97.363,
        "meta_ra_of_asc_node": 75.5332,
        "meta_arg_of_pericenter": 86.5048,
        "meta_mean_anomaly": 273.684,
        "meta_ephemeris_type": 0,
        "meta_classification_type": "U",
        "meta_norad_cat_id": 40298,
        "meta_element_set_no": 999,
        "meta_rev_at_epoch": 61769,
        "meta_bstar": 0.00025384457,
        "meta_mean_motion_dot": 5.364e-05,
        "meta_mean_motion_ddot": 0,
        "tle_line1": "1 40298U 14070A   25359.90873956  .00005364  00000+0  25384-3 0  9998",
        "tle_line2": "2 40298  97.3630  75.5332 0005705  86.5048 273.6840 15.19755365617692"
      },
      "geometry": {
        "type": "Point",
        "coordinates": [
          -92.91722548599708,
          56.510627577045604
        ]
      }
    },
    {
      "type": "Feature",
      "properties": {
        "norad_id": 40310,
        "name": "YAOGAN-24",
        "group": "resource",
        "lat": 24.606533446970715,
        "lon": -44.889162292733765,
        "alt_km": 634.9016339857062,
        "timestamp": "2025-12-26T04:40:05.445337+00:00",
        "meta_object_name": "YAOGAN-24",
        "meta_object_id": "2014-072A",
        "meta_epoch": "2025-12-25T23:05:21.606432",
        "meta_mean_motion": 14.76204046,
        "meta_eccentricity": 0.00152152,
        "meta_inclination": 98.1233,
        "meta_ra_of_asc_node": 131.1266,
        "meta_arg_of_pericenter": 98.4511,
        "meta_mean_anomaly": 261.8424,
        "meta_ephemeris_type": 0,
        "meta_classification_type": "U",
        "meta_norad_cat_id": 40310,
        "meta_element_set_no": 999,
        "meta_rev_at_epoch": 59816,
        "meta_bstar": 0.00016615136,
        "meta_mean_motion_dot": 1.099e-05,
        "meta_mean_motion_ddot": 0,
        "tle_line1": "1 40310U 14072A   25359.96205563  .00001099  00000+0  16615-3 0  9992",
        "tle_line2": "2 40310  98.1233 131.1266 0015215  98.4511 261.8424 14.76204046598168"
      },
      "geometry": {
        "type": "Point",
        "coordinates": [
          -44.889162292733765,
          24.606533446970715
        ]
      }
    },
    {
      "type": "Feature",
      "properties": {
        "norad_id": 40336,
        "name": "CBERS 4",
        "group": "resource",
        "lat": 81.50787421912456,
        "lon": -21.09361436759739,
        "alt_km": 764.5410849992422,
        "timestamp": "2025-12-26T04:40:05.445362+00:00",
        "meta_object_name": "CBERS 4",
        "meta_object_id": "2014-079A",
        "meta_epoch": "2025-12-25T23:14:22.936992",
        "meta_mean_motion": 14.35522474,
        "meta_eccentricity": 0.00018839,
        "meta_inclination": 98.3286,
        "meta_ra_of_asc_node": 57.5311,
        "meta_arg_of_pericenter": 98.0714,
        "meta_mean_anomaly": 262.0686,
        "meta_ephemeris_type": 0,
        "meta_classification_type": "U",
        "meta_norad_cat_id": 40336,
        "meta_element_set_no": 999,
        "meta_rev_at_epoch": 57910,
        "meta_bstar": 4.2879032e-05,
        "meta_mean_motion_dot": 8.1e-07,
        "meta_mean_motion_ddot": 0,
        "tle_line1": "1 40336U 14079A   25359.96832103  .00000081  00000+0  42879-4 0  9995",
        "tle_line2": "2 40336  98.3286  57.5311 0001883  98.0714 262.0686 14.35522474579104"
      },
      "geometry": {
        "type": "Point",
        "coordinates": [
          -21.09361436759739,
          81.50787421912456
        ]
      }
    },
    {
      "type": "Feature",
      "properties": {
        "norad_id": 40362,
        "name": "YAOGAN-26",
        "group": "resource",
        "lat": 31.412808112961777,
        "lon": -3.9517148810165508,
        "alt_km": 443.0188504656753,
        "timestamp": "2025-12-26T04:40:05.445375+00:00",
        "meta_object_name": "YAOGAN-26",
        "meta_object_id": "2014-088A",
        "meta_epoch": "2025-12-25T23:51:07.482240",
        "meta_mean_motion": 15.39775711,
        "meta_eccentricity": 0.00042356,
        "meta_inclination": 97.0647,
        "meta_ra_of_asc_node": 0.1983,
        "meta_arg_of_pericenter": 348.2429,
        "meta_mean_anomaly": 11.8718,
        "meta_ephemeris_type": 0,
        "meta_classification_type": "U",
        "meta_norad_cat_id": 40362,
        "meta_element_set_no": 999,
        "meta_rev_at_epoch": 61098,
        "meta_bstar": 0.00076631569,
        "meta_mean_motion_dot": 0.0003036,
        "meta_mean_motion_ddot": 0,
        "tle_line1": "1 40362U 14088A   25359.99383660  .00030360  00000+0  76632-3 0  9992",
        "tle_line2": "2 40362  97.0647   0.1983 0004235 348.2429  11.8718 15.39775711610983"
      },
      "geometry": {
        "type": "Point",
        "coordinates": [
          -3.9517148810165508,
          31.412808112961777
        ]
      }
    }
  ]
}